{"type": "FeatureCollection", "features": [ {"type": "Feature", "properties": {"norad_id": 66521, "name": "STARLINK-35915", "group": "last-30-days", "lat": 17.64602976411821, "lon": 117.25251577740512, "alt_km": 355.82436969097307, "timestamp": "2025-12-05T09:41:17.889209+00:00", "meta": {"OBJECT_NAME": "STARLINK-35915", "OBJECT_ID": "2025-265F", "EPOCH": "2025-12-04T18:00:02.000160", "MEAN_MOTION": 15.72749794, "ECCENTRICITY": 0.0001026, "INCLINATION": 42.9999, "RA_OF_ASC_NODE": 101.2371, "ARG_OF_PERICENTER": 271.5064, "MEAN_ANOMALY": 12.6094, "EPHEMERIS_TYPE": 0, "CLASSIFICATION_TYPE": "U", "NORAD_CAT_ID": 66521, "ELEMENT_SET_NO": 999, "REV_AT_EPOCH": 371, "BSTAR": -0.015067, "MEAN_MOTION_DOT": -0.01830907, "MEAN_MOTION_DDOT": 0}, "tle": {"line1": "1 66521U 25265F   25338.75002315 -.01830907  00000+0 -15067-1 0  9993", "line2": "2 66521  42.9999 101.2371 0001026 271.5064  12.6094 15.72749794  3711"}}, "geometry": {"type": "Point", "coordinates": [117.25251577740512, 17.64602976411821]}}, {"type": "Feature", "properties": {"norad_id": 66522, "name": "STARLINK-35946", "group": "last-30-days", "lat": 18.871533323132986, "lon": 118.80728105117055, "alt_km": 355.7234049098897, "timestamp": "2025-12-05T09:41:17.889221+00:00", "meta": {"OBJECT_NAME": "STARLINK-35946", "OBJECT_ID": "2025-265G", "EPOCH": "2025-12-04T18:00:02.000160", "MEAN_MOTION": 15.72749518, "ECCENTRICITY": 0.0001354, "INCLINATION": 42.9998, "RA_OF_ASC_NODE": 101.2323, "ARG_OF_PERICENTER": 273.629, "MEAN_ANOMALY": 12.4069, "EPHEMERIS_TYPE": 0, "CLASSIFICATION_TYPE": "U", "NORAD_CAT_ID": 66522, "ELEMENT_SET_NO": 999, "REV_AT_EPOCH": 371, "BSTAR": -0.015079, "MEAN_MOTION_DOT": -0.01832376, "MEAN_MOTION_DDOT": 0}, "tle": {"line1": "1 66522U 25265G   25338.75002315 -.01832376  00000+0 -15079-1 0  9999", "line2": "2 66522  42.9998 101.2323 0001354 273.6290  12.4069 15.72749518  3710"}}, "geometry": {"type": "Point", "coordinates": [118.80728105117055, 18.871533323132986]}}, {"type": "Feature", "properties": {"norad_id": 66523, "name": "STARLINK-35969", "group": "last-30-days", "lat": 20.08007903743914, "lon": 120.3792427156619, "alt_km": 355.5053780427115, "timestamp": "2025-12-05T09:41:17.889231+00:00", "meta": {"OBJECT_NAME": "STARLINK-35969", "OBJECT_ID": "2025-265H", "EPOCH": "2025-12-04T18:00:02.000160", "MEAN_MOTION": 15.7275098, "ECCENTRICITY": 0.0001183, "INCLINATION": 42.9999, "RA_OF_ASC_NODE": 101.227, "ARG_OF_PERICENTER": 274.0178, "MEAN_ANOMALY": 13.9335, "EPHEMERIS_TYPE": 0, "CLASSIFICATION_TYPE": "U", "NORAD_CAT_ID": 66523, "ELEMENT_SET_NO": 999, "REV_AT_EPOCH": 371, "BSTAR": -0.015089, "MEAN_MOTION_DOT": -0.01833358, "MEAN_MOTION_DDOT": 0}, "tle": {"line1": "1 66523U 25265H   25338.75002315 -.01833358  00000+0 -15089-1 0  9992", "line2": "2 66523  42.9999 101.2270 0001183 274.0178  13.9335 15.72750980  3710"}}, "geometry": {"type": "Point", "coordinates": [120.3792427156619, 20.08007903743914]}}, {"type": "Feature", "properties": {"norad_id": 66524, "name": "STARLINK-35687", "group": "last-30-days", "lat": 21.277508614013897, "lon": 121.98057017095233, "alt_km": 355.46190651554843, "timestamp": "2025-12-05T09:41:17.889241+00:00", "meta": {"OBJECT_NAME": "STARLINK-35687", "OBJECT_ID": "2025-265J", "EPOCH": "2025-12-04T18:00:02.000160", "MEAN_MOTION": 15.72750678, "ECCENTRICITY": 0.0001396, "INCLINATION": 42.9999, "RA_OF_ASC_NODE": 101.2224, "ARG_OF_PERICENTER": 272.7344, "MEAN_ANOMALY": 17.1351, "EPHEMERIS_TYPE": 0, "CLASSIFICATION_TYPE": "U", "NORAD_CAT_ID": 66524, "ELEMENT_SET_NO": 999, "REV_AT_EPOCH": 371, "BSTAR": -0.015088, "MEAN_MOTION_DOT": -0.01833501, "MEAN_MOTION_DDOT": 0}, "tle": {"line1": "1 66524U 25265J   25338.75002315 -.01833501  00000+0 -15088-1 0  9992", "line2": "2 66524  42.9999 101.2224 0001396 272.7344  17.1351 15.72750678  3714"}}, "geometry": {"type": "Point", "coordinates": [121.98057017095233, 21.277508614013897]}}, {"type": "Feature", "properties": {"norad_id": 66525, "name": "STARLINK-35975", "group": "last-30-days", "lat": 22.45614801335182, "lon": 123.60360874230145, "alt_km": 355.3997713715398, "timestamp": "2025-12-05T09:41:17.889251+00:00", "meta": {"OBJECT_NAME": "STARLINK-35975", "OBJECT_ID": "2025-265K", "EPOCH": "2025-12-04T18:00:02.000160", "MEAN_MOTION": 15.72750749, "ECCENTRICITY": 0.0001204, "INCLINATION": 42.9998, "RA_OF_ASC_NODE": 101.2179, "ARG_OF_PERICENTER": 266.0997, "MEAN_ANOMALY": 25.6848, "EPHEMERIS_TYPE": 0, "CLASSIFICATION_TYPE": "U", "NORAD_CAT_ID": 66525, "ELEMENT_SET_NO": 999, "REV_AT_EPOCH": 371, "BSTAR": -0.015075, "MEAN_MOTION_DOT": -0.01831921, "MEAN_MOTION_DDOT": 0}, "tle": {"line1": "1 66525U 25265K   25338.75002315 -.01831921  00000+0 -15075-1 0  9993", "line2": "2 66525  42.9998 101.2179 0001204 266.0997  25.6848 15.72750749  3715"}}, "geometry": {"type": "Point", "coordinates": [123.60360874230145, 22.45614801335182]}}, {"type": "Feature", "properties": {"norad_id": 66526, "name": "STARLINK-35932", "group": "last-30-days", "lat": 23.622241079458266, "lon": 125.25974990477864, "alt_km": 355.17743827534196, "timestamp": "2025-12-05T09:41:17.889261+00:00", "meta": {"OBJECT_NAME": "STARLINK-35932", "OBJECT_ID": "2025-265L", "EPOCH": "2025-12-04T18:00:02.000160", "MEAN_MOTION": 15.72751241, "ECCENTRICITY": 0.000145, "INCLINATION": 42.9999, "RA_OF_ASC_NODE": 101.2131, "ARG_OF_PERICENTER": 273.0085, "MEAN_ANOMALY": 20.6944, "EPHEMERIS_TYPE": 0, "CLASSIFICATION_TYPE": "U", "NORAD_CAT_ID": 66526, "ELEMENT_SET_NO": 999, "REV_AT_EPOCH": 360, "BSTAR": -0.015087, "MEAN_MOTION_DOT": -0.01833395, "MEAN_MOTION_DDOT": 0}, "tle": {"line1": "1 66526U 25265L   25338.75002315 -.01833395  00000+0 -15087-1 0  9994", "line2": "2 66526  42.9999 101.2131 0001450 273.0085  20.6944 15.72751241  3602"}}, "geometry": {"type": "Point", "coordinates": [125.25974990477864, 23.622241079458266]}}, {"type": "Feature", "properties": {"norad_id": 66527, "name": "STARLINK-35935", "group": "last-30-days", "lat": 24.7655858322523, "lon": 126.93875326079558, "alt_km": 354.83775959058494, "timestamp": "2025-12-05T09:41:17.889270+00:00", "meta": {"OBJECT_NAME": "STARLINK-35935", "OBJECT_ID": "2025-265M", "EPOCH": "2025-12-04T18:00:02.000160", "MEAN_MOTION": 15.72747158, "ECCENTRICITY": 0.0001073, "INCLINATION": 43, "RA_OF_ASC_NODE": 101.2087, "ARG_OF_PERICENTER": 274.1193, "MEAN_ANOMALY": 21.5013, "EPHEMERIS_TYPE": 0, "CLASSIFICATION_TYPE": "U", "NORAD_CAT_ID": 66527, "ELEMENT_SET_NO": 999, "REV_AT_EPOCH": 371, "BSTAR": -0.015047, "MEAN_MOTION_DOT": -0.01828613, "MEAN_MOTION_DDOT": 0}, "tle": {"line1": "1 66527U 25265M   25338.75002315 -.01828613  00000+0 -15047-1 0  9998", "line2": "2 66527  43.0000 101.2087 0001073 274.1193  21.5013 15.72747158  3712"}}, "geometry": {"type": "Point", "coordinates": [126.93875326079558, 24.7655858322523]}}, {"type": "Feature", "properties": {"norad_id": 66528, "name": "STARLINK-35928", "group": "last-30-days", "lat": 25.893016161198222, "lon": 128.65322117507978, "alt_km": 354.85078745062765, "timestamp": "2025-12-05T09:41:17.889280+00:00", "meta": {"OBJECT_NAME": "STARLINK-35928", "OBJECT_ID": "2025-265N", "EPOCH": "2025-12-04T18:00:02.000160", "MEAN_MOTION": 15.72749415, "ECCENTRICITY": 0.0001256, "INCLINATION": 43, "RA_OF_ASC_NODE": 101.2036, "ARG_OF_PERICENTER": 271.1375, "MEAN_ANOMALY": 26.4001, "EPHEMERIS_TYPE": 0, "CLASSIFICATION_TYPE": "U", "NORAD_CAT_ID": 66528, "ELEMENT_SET_NO": 999, "REV_AT_EPOCH": 371, "BSTAR": -0.015071, "MEAN_MOTION_DOT": -0.01831498, "MEAN_MOTION_DDOT": 0}, "tle": {"line1": "1 66528U 25265N   25338.75002315 -.01831498  00000+0 -15071-1 0  9991", "line2": "2 66528  43.0000 101.2036 0001256 271.1375  26.4001 15.72749415  3718"}}, "geometry": {"type": "Point", "coordinates": [128.65322117507978, 25.893016161198222]}}, {"type": "Feature", "properties": {"norad_id": 66529, "name": "STARLINK-35933", "group": "last-30-days", "lat": 26.998937796313214, "lon": 130.39940245688598, "alt_km": 354.78960055757307, "timestamp": "2025-12-05T09:41:17.889292+00:00", "meta": {"OBJECT_NAME": "STARLINK-35933", "OBJECT_ID": "2025-265P", "EPOCH": "2025-12-04T18:00:02.000160", "MEAN_MOTION": 15.72748594, "ECCENTRICITY": 0.0001249, "INCLINATION": 42.9999, "RA_OF_ASC_NODE": 101.1986, "ARG_OF_PERICENTER": 267.2977, "MEAN_ANOMALY": 32.1571, "EPHEMERIS_TYPE": 0, "CLASSIFICATION_TYPE": "U", "NORAD_CAT_ID": 66529, "ELEMENT_SET_NO": 999, "REV_AT_EPOCH": 371, "BSTAR": -0.015057, "MEAN_MOTION_DOT": -0.01829925, "MEAN_MOTION_DDOT": 0}, "tle": {"line1": "1 66529U 25265P   25338.75002315 -.01829925  00000+0 -15057-1 0  9998", "line2": "2 66529  42.9999 101.1986 0001249 267.2977  32.1571 15.72748594  3716"}}, "geometry": {"type": "Point", "coordinates": [130.39940245688598, 26.998937796313214]}}, {"type": "Feature", "properties": {"norad_id": 66530, "name": "STARLINK-35961", "group": "last-30-days", "lat": 28.085529855037244, "lon": 132.18492404490257, "alt_km": 354.35559956596353, "timestamp": "2025-12-05T09:41:17.889305+00:00", "meta": {"OBJECT_NAME": "STARLINK-35961", "OBJECT_ID": "2025-265Q", "EPOCH": "2025-12-04T18:00:02.000160", "MEAN_MOTION": 15.72741717, "ECCENTRICITY": 0.000142, "INCLINATION": 42.9999, "RA_OF_ASC_NODE": 101.194, "ARG_OF_PERICENTER": 281.4918, "MEAN_ANOMALY": 19.884, "EPHEMERIS_TYPE": 0, "CLASSIFICATION_TYPE": "U", "NORAD_CAT_ID": 66530, "ELEMENT_SET_NO": 999, "REV_AT_EPOCH": 371, "BSTAR": -0.015, "MEAN_MOTION_DOT": -0.01823566, "MEAN_MOTION_DDOT": 0}, "tle": {"line1": "1 66530U 25265Q   25338.75002315 -.01823566  00000+0 -15000-1 0  9993", "line2": "2 66530  42.9999 101.1940 0001420 281.4918  19.8840 15.72741717  3713"}}, "geometry": {"type": "Point", "coordinates": [132.18492404490257, 28.085529855037244]}}]}